[
  {
    "COMMENT": "GENERATED VIA SPACETRACK.ORG API",
    "ORIGINATOR": "18 SPCS",
    "NORAD_CAT_ID": "33105",
    "OBJECT_NAME": "JASON 2",
    "OBJECT_TYPE": "PAYLOAD",
    "CLASSIFICATION_TYPE": "U",
    "INTLDES": "08032A",
    "EPOCH": "2023-05-30 10:32:17",
    "EPOCH_MICROSECONDS": "901312",
    "MEAN_MOTION": "12.87659483",
    "ECCENTRICITY": "0.000822",
    "INCLINATION": "66.04",
    "RA_OF_ASC_NODE": "232.7619",
    "ARG_OF_PERICENTER": "270.3414",
    "MEAN_ANOMALY": "165.2721",
    "EPHEMERIS_TYPE": "0",
    "ELEMENT_SET_NO": "999",
    "REV_AT_EPOCH": "70030",
    "BSTAR": "0.000060602",
    "MEAN_MOTION_DOT": "-0.00000047",
    "MEAN_MOTION_DDOT": "0",
    "FILE": "3920920",
    "TLE_LINE0": "0 JASON 2",
    "TLE_LINE1": "1 33105U 08032A   23150.43909608 -.00000047  00000-0  60602-4 0  9995",
    "TLE_LINE2": "2 33105  66.0400 232.7619 0008220 270.3414 165.2721 12.87659483700300",
    "OBJECT_ID": "2008-032A",
    "OBJECT_NUMBER": "33105",
    "SEMIMAJOR_AXIS": "7688.964",
    "PERIOD": "111.831",
    "APOGEE": "1317.149",
    "PERIGEE": "1304.509",
    "DECAYED": "0"
  },
  {
    "COMMENT": "GENERATED VIA SPACETRACK.ORG API",
    "ORIGINATOR": "18 SPCS",
    "NORAD_CAT_ID": "33105",
    "OBJECT_NAME": "JASON 2",
    "OBJECT_TYPE": "PAYLOAD",
    "CLASSIFICATION_TYPE": "U",
    "INTLDES": "08032A",
    "EPOCH": "2023-05-30 14:23:27",
    "EPOCH_MICROSECONDS": "525696",
    "MEAN_MOTION": "12.87659481",
    "ECCENTRICITY": "0.0008224",
    "INCLINATION": "66.04",
    "RA_OF_ASC_NODE": "232.4244",
    "ARG_OF_PERICENTER": "270.3448",
    "MEAN_ANOMALY": "189.3348",
    "EPHEMERIS_TYPE": "0",
    "ELEMENT_SET_NO": "999",
    "REV_AT_EPOCH": "70032",
    "BSTAR": "0.000069186",
    "MEAN_MOTION_DOT": "-0.00000045",
    "MEAN_MOTION_DDOT": "0",
    "FILE": "3921192",
    "TLE_LINE0": "0 JASON 2",
    "TLE_LINE1": "1 33105U 08032A   23150.59962414 -.00000045  00000-0  69186-4 0  9990",
    "TLE_LINE2": "2 33105  66.0400 232.4244 0008224 270.3448 189.3348 12.87659481700324",
    "OBJECT_ID": "2008-032A",
    "OBJECT_NUMBER": "33105",
    "SEMIMAJOR_AXIS": "7688.964",
    "PERIOD": "111.831",
    "APOGEE": "1317.152",
    "PERIGEE": "1304.505",
    "DECAYED": "0"
  },
  {
    "COMMENT": "GENERATED VIA SPACETRACK.ORG API",
    "ORIGINATOR": "18 SPCS",
    "NORAD_CAT_ID": "33105",
    "OBJECT_NAME": "JASON 2",
    "OBJECT_TYPE": "PAYLOAD",
    "CLASSIFICATION_TYPE": "U",
    "INTLDES": "08032A",
    "EPOCH": "2023-05-31 14:38:23",
    "EPOCH_MICROSECONDS": "478144",
    "MEAN_MOTION": "12.87659566",
    "ECCENTRICITY": "0.0008246",
    "INCLINATION": "66.0399",
    "RA_OF_ASC_NODE": "230.3001",
    "ARG_OF_PERICENTER": "270.2995",
    "MEAN_ANOMALY": "192.562",
    "EPHEMERIS_TYPE": "0",
    "ELEMENT_SET_NO": "999",
    "REV_AT_EPOCH": "70045",
    "BSTAR": "0.00012584",
    "MEAN_MOTION_DOT": "-0.0000003",
    "MEAN_MOTION_DDOT": "0",
    "FILE": "3921767",
    "TLE_LINE0": "0 JASON 2",
    "TLE_LINE1": "1 33105U 08032A   23151.60999396 -.00000030  00000-0  12584-3 0  9995",
    "TLE_LINE2": "2 33105  66.0399 230.3001 0008246 270.2995 192.5620 12.87659566700456",
    "OBJECT_ID": "2008-032A",
    "OBJECT_NUMBER": "33105",
    "SEMIMAJOR_AXIS": "7688.964",
    "PERIOD": "111.831",
    "APOGEE": "1317.169",
    "PERIGEE": "1304.488",
    "DECAYED": "0"
  },
  {
    "COMMENT": "GENERATED VIA SPACETRACK.ORG API",
    "ORIGINATOR": "18 SPCS",
    "NORAD_CAT_ID": "33105",
    "OBJECT_NAME": "JASON 2",
    "OBJECT_TYPE": "PAYLOAD",
    "CLASSIFICATION_TYPE": "U",
    "INTLDES": "08032A",
    "EPOCH": "2023-05-31 22:27:37",
    "EPOCH_MICROSECONDS": "110816",
    "MEAN_MOTION": "12.87659576",
    "ECCENTRICITY": "0.0008257",
    "INCLINATION": "66.0398",
    "RA_OF_ASC_NODE": "229.615",
    "ARG_OF_PERICENTER": "270.2904",
    "MEAN_ANOMALY": "262.934",
    "EPHEMERIS_TYPE": "0",
    "ELEMENT_SET_NO": "999",
    "REV_AT_EPOCH": "70049",
    "BSTAR": "0.00012986",
    "MEAN_MOTION_DOT": "-0.00000029",
    "MEAN_MOTION_DDOT": "0",
    "FILE": "3922037",
    "TLE_LINE0": "0 JASON 2",
    "TLE_LINE1": "1 33105U 08032A   23151.93584619 -.00000029  00000-0  12986-3 0  9993",
    "TLE_LINE2": "2 33105  66.0398 229.6150 0008257 270.2904 262.9340 12.87659576700499",
    "OBJECT_ID": "2008-032A",
    "OBJECT_NUMBER": "33105",
    "SEMIMAJOR_AXIS": "7688.964",
    "PERIOD": "111.831",
    "APOGEE": "1317.177",
    "PERIGEE": "1304.480",
    "DECAYED": "0"
  },
  {
    "COMMENT": "GENERATED VIA SPACETRACK.ORG API",
    "ORIGINATOR": "18 SPCS",
    "NORAD_CAT_ID": "33105",
    "OBJECT_NAME": "JASON 2",
    "OBJECT_TYPE": "PAYLOAD",
    "CLASSIFICATION_TYPE": "U",
    "INTLDES": "08032A",
    "EPOCH": "2023-06-01 05:06:21",
    "EPOCH_MICROSECONDS": "536928",
    "MEAN_MOTION": "12.87659566",
    "ECCENTRICITY": "0.0008259",
    "INCLINATION": "66.0398",
    "RA_OF_ASC_NODE": "229.0328",
    "ARG_OF_PERICENTER": "270.2609",
    "MEAN_ANOMALY": "106.4415",
    "EPHEMERIS_TYPE": "0",
    "ELEMENT_SET_NO": "999",
    "REV_AT_EPOCH": "70062",
    "BSTAR": "0.00011841",
    "MEAN_MOTION_DOT": "-0.00000032",
    "MEAN_MOTION_DDOT": "0",
    "FILE": "3922103",
    "TLE_LINE0": "0 JASON 2",
    "TLE_LINE1": "1 33105U 08032A   23152.21274927 -.00000032  00000-0  11841-3 0  9996",
    "TLE_LINE2": "2 33105  66.0398 229.0328 0008259 270.2609 106.4415 12.87659566700623",
    "OBJECT_ID": "2008-032A",
    "OBJECT_NUMBER": "33105",
    "SEMIMAJOR_AXIS": "7688.964",
    "PERIOD": "111.831",
    "APOGEE": "1317.179",
    "PERIGEE": "1304.478",
    "DECAYED": "0"
  },
  {
    "COMMENT": "GENERATED VIA SPACETRACK.ORG API",
    "ORIGINATOR": "18 SPCS",
    "NORAD_CAT_ID": "33105",
    "OBJECT_NAME": "JASON 2",
    "OBJECT_TYPE": "PAYLOAD",
    "CLASSIFICATION_TYPE": "U",
    "INTLDES": "08032A",
    "EPOCH": "2023-06-01 11:01:57",
    "EPOCH_MICROSECONDS": "514080",
    "MEAN_MOTION": "12.8765956",
    "ECCENTRICITY": "0.0008262",
    "INCLINATION": "66.0397",
    "RA_OF_ASC_NODE": "228.5136",
    "ARG_OF_PERICENTER": "270.2437",
    "MEAN_ANOMALY": "171.0737",
    "EPHEMERIS_TYPE": "0",
    "ELEMENT_SET_NO": "999",
    "REV_AT_EPOCH": "70056",
    "BSTAR": "0.00011676",
    "MEAN_MOTION_DOT": "-0.00000033",
    "MEAN_MOTION_DDOT": "0",
    "FILE": "3922365",
    "TLE_LINE0": "0 JASON 2",
    "TLE_LINE1": "1 33105U 08032A   23152.45969345 -.00000033  00000-0  11676-3 0  9994",
    "TLE_LINE2": "2 33105  66.0397 228.5136 0008262 270.2437 171.0737 12.87659560700568",
    "OBJECT_ID": "2008-032A",
    "OBJECT_NUMBER": "33105",
    "SEMIMAJOR_AXIS": "7688.964",
    "PERIOD": "111.831",
    "APOGEE": "1317.181",
    "PERIGEE": "1304.476",
    "DECAYED": "0"
  },
  {
    "COMMENT": "GENERATED VIA SPACETRACK.ORG API",
    "ORIGINATOR": "18 SPCS",
    "NORAD_CAT_ID": "33105",
    "OBJECT_NAME": "JASON 2",
    "OBJECT_TYPE": "PAYLOAD",
    "CLASSIFICATION_TYPE": "U",
    "INTLDES": "08032A",
    "EPOCH": "2023-06-01 12:58:04",
    "EPOCH_MICROSECONDS": "206144",
    "MEAN_MOTION": "12.87659569",
    "ECCENTRICITY": "0.0008262",
    "INCLINATION": "66.0397",
    "RA_OF_ASC_NODE": "228.344",
    "ARG_OF_PERICENTER": "270.247",
    "MEAN_ANOMALY": "184.8138",
    "EPHEMERIS_TYPE": "0",
    "ELEMENT_SET_NO": "999",
    "REV_AT_EPOCH": "70057",
    "BSTAR": "0.00012488",
    "MEAN_MOTION_DOT": "-0.00000031",
    "MEAN_MOTION_DDOT": "0",
    "FILE": "3922718",
    "TLE_LINE0": "0 JASON 2",
    "TLE_LINE1": "1 33105U 08032A   23152.54032646 -.00000031  00000-0  12488-3 0  9999",
    "TLE_LINE2": "2 33105  66.0397 228.3440 0008262 270.2470 184.8138 12.87659569700578",
    "OBJECT_ID": "2008-032A",
    "OBJECT_NUMBER": "33105",
    "SEMIMAJOR_AXIS": "7688.964",
    "PERIOD": "111.831",
    "APOGEE": "1317.181",
    "PERIGEE": "1304.476",
    "DECAYED": "0"
  },
  {
    "COMMENT": "GENERATED VIA SPACETRACK.ORG API",
    "ORIGINATOR": "18 SPCS",
    "NORAD_CAT_ID": "33105",
    "OBJECT_NAME": "JASON 2",
    "OBJECT_TYPE": "PAYLOAD",
    "CLASSIFICATION_TYPE": "U",
    "INTLDES": "08032A",
    "EPOCH": "2023-06-02 13:13:03",
    "EPOCH_MICROSECONDS": "956736",
    "MEAN_MOTION": "12.87659607",
    "ECCENTRICITY": "0.0008266",
    "INCLINATION": "66.0396",
    "RA_OF_ASC_NODE": "226.2196",
    "ARG_OF_PERICENTER": "270.2235",
    "MEAN_ANOMALY": "188.2232",
    "EPHEMERIS_TYPE": "0",
    "ELEMENT_SET_NO": "999",
    "REV_AT_EPOCH": "70070",
    "BSTAR": "0.00012796",
    "MEAN_MOTION_DOT": "-0.0000003",
    "MEAN_MOTION_DDOT": "0",
    "FILE": "3923342",
    "TLE_LINE0": "0 JASON 2",
    "TLE_LINE1": "1 33105U 08032A   23153.55074024 -.00000030  00000-0  12796-3 0  9998",
    "TLE_LINE2": "2 33105  66.0396 226.2196 0008266 270.2235 188.2232 12.87659607700706",
    "OBJECT_ID": "2008-032A",
    "OBJECT_NUMBER": "33105",
    "SEMIMAJOR_AXIS": "7688.963",
    "PERIOD": "111.831",
    "APOGEE": "1317.184",
    "PERIGEE": "1304.473",
    "DECAYED": "0"
  },
  {
    "COMMENT": "GENERATED VIA SPACETRACK.ORG API",
    "ORIGINATOR": "18 SPCS",
    "NORAD_CAT_ID": "33105",
    "OBJECT_NAME": "JASON 2",
    "OBJECT_TYPE": "PAYLOAD",
    "CLASSIFICATION_TYPE": "U",
    "INTLDES": "08032A",
    "EPOCH": "2023-06-02 15:07:29",
    "EPOCH_MICROSECONDS": "64864",
    "MEAN_MOTION": "12.87659622",
    "ECCENTRICITY": "0.0008265",
    "INCLINATION": "66.0396",
    "RA_OF_ASC_NODE": "226.0525",
    "ARG_OF_PERICENTER": "270.2257",
    "MEAN_ANOMALY": "196.5148",
    "EPHEMERIS_TYPE": "0",
    "ELEMENT_SET_NO": "999",
    "REV_AT_EPOCH": "70071",
    "BSTAR": "0.00013421",
    "MEAN_MOTION_DOT": "-0.00000028",
    "MEAN_MOTION_DDOT": "0",
    "FILE": "3923570",
    "TLE_LINE0": "0 JASON 2",
    "TLE_LINE1": "1 33105U 08032A   23153.63019751 -.00000028  00000-0  13421-3 0  9996",
    "TLE_LINE2": "2 33105  66.0396 226.0525 0008265 270.2257 196.5148 12.87659622700719",
    "OBJECT_ID": "2008-032A",
    "OBJECT_NUMBER": "33105",
    "SEMIMAJOR_AXIS": "7688.963",
    "PERIOD": "111.831",
    "APOGEE": "1317.183",
    "PERIGEE": "1304.473",
    "DECAYED": "0"
  }
]